STARLINK-5646           
1 55461U 23015N   26068.10268634 -.00004024  00000+0 -28306-3 0  9997
2 55461  43.0039 329.3585 0001039 275.3748  84.6976 15.02524276170660
KUIPER-00139            
1 65765U 25217D   26068.30974975  .00011274  00000+0  87196-3 0  9990
2 65765  51.8865  35.5400 0007119 318.9010  41.1425 15.01890214 24959
